MEAN_MOTION;ECCENTRICITY;INCLINATION;RA_OF_ASC_NODE;ARG_OF_PERICENTER;MEAN_ANOMALY;BSTAR;MEAN_MOTION_DOT;MEAN_MOTION_DDOT;TYPE
1.0027102;0.0008379;0.0747;108.0984;135.4372;29.9349;0;-1.09E-6;0;Weather
1.0027102;0.0008379;0.0747;108.0984;135.4372;29.9349;0;-1.09E-6;0;Weather
1.00271023;0.0008383;0.0748;108.0769;135.4839;45.0499;0;-1.09E-6;0;Weather
1.00270947;0.00083;0.0773;107.8566;135.7111;30.7533;0;-1.13E-6;0;Weather
1.00270943;0.0008295;0.0774;107.8664;135.6835;47.8342;0;-1.13E-6;0;Weather
1.00270888;0.0008204;0.0799;107.6307;135.8024;29.7077;0;-1.16E-6;0;Weather
1.00270886;0.0008199;0.0801;107.6221;135.7836;50.8005;0;-1.16E-6;0;Weather
1.00270874;0.0008098;0.0826;107.3448;135.8321;35.2307;0;-1.18E-6;0;Weather
1.00270874;0.0008098;0.0826;107.3448;135.8321;35.2307;0;-1.18E-6;0;Weather
1.00271489;0.0008588;0.0818;109.4309;133.4924;239.0233;0;-1.18E-6;0;Weather
1.00270906;0.0008007;0.0853;107.0284;135.8645;29.7443;0;-1.19E-6;0;Weather
1.00270906;0.0008007;0.0853;107.0284;135.8645;29.7443;0;-1.19E-6;0;Weather
1.00270909;0.0008;0.0854;106.9831;135.86;56.9528;0;-1.18E-6;0;Weather
1.00270975;0.0007911;0.0878;106.6945;135.8305;9.8652;0;-1.19E-6;0;Weather
1.00271093;0.0007813;0.0904;106.3665;135.6395;37.6976;0;-1.18E-6;0;Weather
1.00271093;0.0007813;0.0904;106.3665;135.6395;37.6976;0;-1.18E-6;0;Weather
1.00271093;0.0007798;0.0909;107.031;134.9134;63.4462;0;-1.17E-6;0;Weather
1.0027128;0.0007721;0.0933;106.6958;134.7797;52.8221;0;-1.16E-6;0;Weather
1.00271402;0.000765;0.0954;106.445;134.5079;18.2076;0;-1.16E-6;0;Weather
1.00271409;0.0007647;0.0955;106.4152;134.4894;49.0413;0;-1.15E-6;0;Weather
1.00271554;0.0007586;0.0976;106.1594;134.21;9.1436;0;-1.15E-6;0;Weather
1.00271576;0.0007591;0.098;106.0545;134.2909;73.4566;0;-1.14E-6;0;Weather
1.00271706;0.0007542;0.0998;105.8458;133.9453;15.9809;0;-1.14E-6;0;Weather
1.00271706;0.0007542;0.0998;105.8458;133.9453;15.9809;0;-1.14E-6;0;Weather
1.00271746;0.0007533;0.1007;105.7013;133.9611;154.7013;0;-1.13E-6;0;Weather
1.00271824;0.0007509;0.102;105.5602;133.6725;22.0022;0;-1.13E-6;0;Weather
1.00271824;0.0007509;0.102;105.5602;133.6725;22.0022;0;-1.13E-6;0;Weather
1.00271859;0.0007506;0.1028;105.4515;133.7099;157.9968;0;-1.12E-6;0;Weather
1.00271925;0.0007502;0.1042;105.323;133.4897;31.57;0;-1.12E-6;0;Weather
1.00271948;0.0007499;0.105;105.2724;133.4541;161.1929;0;-1.12E-6;0;Weather
1.00272;0.0007501;0.1064;105.1624;133.2556;47.6428;0;-1.11E-6;0;Weather
1.00272;0.0007501;0.1064;105.1624;133.2556;47.6428;0;-1.11E-6;0;Weather
1.00272017;0.00075;0.1071;105.1125;133.2854;164.3255;0;-1.11E-6;0;Weather
1.00272044;0.0007506;0.1085;105.0278;133.1067;49.5922;0;-1.1E-6;0;Weather
1.00272044;0.0007506;0.1085;105.0278;133.1067;49.5922;0;-1.1E-6;0;Weather
1.00272056;0.0007507;0.1093;104.9864;133.1482;167.3352;0;-1.09E-6;0;Weather
1.00272065;0.0007523;0.1108;104.8391;133.1235;67.6259;0;-1.09E-6;0;Weather
1.00272061;0.0007542;0.1127;104.6886;133.2038;24.4443;0;-1.07E-6;0;Weather
1.00272055;0.0007539;0.1136;104.5959;133.2532;173.2863;0;-1.06E-6;0;Weather
1.00272025;0.0007562;0.1151;104.5969;133.2587;54.6736;0;-1.04E-6;0;Weather
1.00272025;0.0007562;0.1151;104.5969;133.2587;54.6736;0;-1.04E-6;0;Weather
1.00272025;0.0007562;0.1151;104.5969;133.2587;54.6736;0;-1.04E-6;0;Weather
1.00272015;0.0007561;0.1158;104.5423;133.2913;176.0943;0;-1.03E-6;0;Weather
1.00271974;0.0007585;0.1172;104.3547;133.5793;53.4088;0;-1.02E-6;0;Weather
1.00271954;0.0007607;0.118;104.3067;133.723;173.8723;0;-1.01E-6;0;Weather
1.00271901;0.0007619;0.1194;104.2474;133.8937;53.7521;0;-1.0E-6;0;Weather
1.00271892;0.0007619;0.1196;104.2218;133.9021;77.7572;0;-9.9E-7;0;Weather
1.00272436;0.0007464;0.1217;104.606;133.8208;54.623;0;-9.8E-7;0;Weather
1.00272436;0.0007464;0.1217;104.606;133.8208;54.623;0;-9.8E-7;0;Weather
1.00272341;0.0007478;0.1238;104.3953;134.2895;55.7916;0;-9.6E-7;0;Weather
1.00272341;0.0007478;0.1238;104.3953;134.2895;55.7916;0;-9.6E-7;0;Weather
1.00272265;0.0007479;0.1247;104.3073;134.3132;212.4514;0;-9.5E-7;0;Weather
1.0027216;0.0007489;0.1265;104.1238;134.775;163.1385;0;-9.5E-7;0;Weather
1.00272125;0.0007486;0.1271;104.0378;134.9081;266.7597;0;-9.5E-7;0;Weather
1.00272069;0.000747;0.128;103.9612;135.1142;57.3685;0;-9.5E-7;0;Weather
1.00272013;0.0007471;0.1287;103.9273;135.115;165.7945;0;-9.5E-7;0;Weather
1.00271915;0.0007443;0.1302;103.7937;135.3896;58.201;0;-9.6E-7;0;Weather
1.00271773;0.0007426;0.1323;103.6746;135.7687;58.3508;0;-9.8E-7;0;Weather
1.00271642;0.0007385;0.1345;103.5578;135.9737;44.1444;0;-1.01E-6;0;Weather
1.00271627;0.000738;0.1347;103.5389;135.9907;70.0632;0;-1.01E-6;0;Weather
1.00271499;0.0007317;0.1371;103.4497;136.0377;72.8962;0;-1.05E-6;0;Weather
1.0027145;0.0007302;0.1378;103.4345;136.014;176.6025;0;-1.05E-6;0;Weather
1.00271388;0.000724;0.1395;103.3569;135.9116;75.9289;0;-1.08E-6;0;Weather
1.00271311;0.0007154;0.1419;103.2894;135.6539;79.0655;0;-1.11E-6;0;Weather
1.00271279;0.000713;0.1427;103.2703;135.5785;182.7954;0;-1.11E-6;0;Weather
1.00271239;0.0007076;0.1441;103.7381;134.8379;65.0683;0;-1.13E-6;0;Weather
1.00271217;0.0007047;0.145;103.7061;134.7361;186.0119;0;-1.13E-6;0;Weather
1.00271235;0.0006995;0.1466;103.6321;134.4512;65.5733;0;-1.14E-6;0;Weather
1.00271284;0.000688;0.1499;103.5256;133.6912;192.8446;0;-1.14E-6;0;Weather
1.00271333;0.0006845;0.1512;103.5061;133.3945;40.4648;0;-1.14E-6;0;Weather
1.00271343;0.0006837;0.1515;103.485;133.272;92.4421;0;-1.13E-6;0;Weather
1.00271448;0.000678;0.1537;103.4361;132.7283;70.9127;0;-1.12E-6;0;Weather
1.00271448;0.000678;0.1537;103.4361;132.7283;70.9127;0;-1.12E-6;0;Weather
1.00271485;0.0006758;0.1544;103.4172;132.4725;173.8334;0;-1.12E-6;0;Weather
1.00271577;0.0006716;0.156;103.3984;131.9153;87.1636;0;-1.11E-6;0;Weather
1.00271713;0.0006674;0.1581;103.3744;131.2065;73.9442;0;-1.1E-6;0;Weather
1.00271761;0.0006662;0.1588;103.3591;130.9576;181.0207;0;-1.09E-6;0;Weather
1.00271812;0.0006644;0.1602;103.512;130.2348;75.7839;0;-1.09E-6;0;Weather
1.00271818;0.0006642;0.1604;103.5067;130.1833;106.6992;0;-1.09E-6;0;Weather
1.00271857;0.0006639;0.1608;103.4997;130.0523;184.588;0;-1.08E-6;0;Weather
1.00271944;0.0006627;0.1622;103.4638;129.5264;78.2051;0;-1.08E-6;0;Weather
1.00271944;0.0006627;0.1622;103.4638;129.5264;78.2051;0;-1.08E-6;0;Weather
1.00271977;0.0006625;0.1628;103.4586;129.3147;188.1716;0;-1.08E-6;0;Weather
1.00272053;0.0006629;0.1642;103.4384;129.0818;64.3396;0;-1.07E-6;0;Weather
1.00272075;0.0006629;0.1648;103.4416;128.9545;173.1977;0;-1.07E-6;0;Weather
1.0027208;0.000663;0.1649;103.437;128.9176;191.3794;0;-1.07E-6;0;Weather
1.00272139;0.000664;0.1663;103.4214;128.4879;80.5755;0;-1.07E-6;0;Weather
1.00272195;0.0006665;0.1684;103.3732;128.1148;82.5466;0;-1.05E-6;0;Weather
1.00272195;0.0006665;0.1684;103.3732;128.1148;82.5466;0;-1.05E-6;0;Weather
1.00272183;0.0006695;0.1702;103.5132;127.6587;71.4192;0;-1.04E-6;0;Weather
1.00272187;0.0006698;0.1708;103.5037;127.6441;172.8933;0;-1.03E-6;0;Weather
1.00272183;0.0006732;0.1723;103.4742;127.5418;74.3879;0;-1.02E-6;0;Weather
1.00272177;0.0006737;0.173;103.4564;127.4776;204.0096;0;-1.01E-6;0;Weather
1.00272152;0.0006768;0.1745;103.4133;127.4394;103.2601;0;-9.9E-7;0;Weather
1.00272152;0.0006768;0.1745;103.4133;127.4394;103.2601;0;-9.9E-7;0;Weather
1.00272145;0.0006774;0.1751;103.3944;127.4473;206.9061;0;-9.8E-7;0;Weather
1.00272106;0.0006802;0.1765;103.3519;127.5662;86.4905;0;-9.7E-7;0;Weather
1.00272101;0.0006802;0.1766;103.35;127.5418;106.0346;0;-9.6E-7;0;Weather
1.00272036;0.0006839;0.1786;103.2783;127.7617;87.6406;0;-9.4E-7;0;Weather
1.00272036;0.0006839;0.1786;103.2783;127.7617;87.6406;0;-9.4E-7;0;Weather
1.00272005;0.0006845;0.1793;103.2613;127.7137;212.3418;0;-9.3E-7;0;Weather
1.00271934;0.0006869;0.1807;103.2426;127.9303;99.4416;0;-9.2E-7;0;Weather
1.00271862;0.0006884;0.1813;103.3053;127.8569;214.9645;0;-9.1E-7;0;Weather
1.00271791;0.0006896;0.1825;103.3169;128.048;66.724;0;-9.0E-7;0;Weather
1.00271783;0.0006898;0.1827;103.3115;128.0504;87.9855;0;-8.9E-7;0;Weather
1.00271735;0.000691;0.1833;103.3155;128.0112;191.6661;0;-8.9E-7;0;Weather
1.0027172;0.0006911;0.1836;103.3068;128.0431;243.4767;0;-8.9E-7;0;Weather
1.00271641;0.0006909;0.1846;103.3539;128.1533;72.5126;0;-8.8E-7;0;Weather
1.00271633;0.0006911;0.1847;103.3527;128.154;90.6493;0;-8.8E-7;0;Weather
1.00271633;0.0006911;0.1847;103.3527;128.154;90.6493;0;-8.8E-7;0;Weather
1.00271565;0.0006923;0.1857;103.3368;128.1662;246.1233;0;-8.8E-7;0;Weather
1.00271475;0.0006918;0.1869;103.3704;128.2485;101.8188;0;-8.8E-7;0;Weather
1.00271347;0.0006915;0.1888;103.3559;128.4031;44.1692;0;-8.8E-7;0;Weather
1.00271185;0.0006902;0.1912;103.3836;128.5423;68.2908;0;-9.0E-7;0;Weather
1.00271185;0.0006902;0.1912;103.3836;128.5423;68.2908;0;-9.0E-7;0;Weather
1.00271167;0.0006901;0.1913;103.3846;128.5452;98.6057;0;-9.0E-7;0;Weather
1.00271003;0.0006875;0.1937;103.379;128.7114;101.2387;0;-9.3E-7;0;Weather
1.00271003;0.0006875;0.1937;103.379;128.7114;101.2387;0;-9.3E-7;0;Weather
1.00270866;0.0006837;0.1957;103.5427;128.3598;94.232;0;-9.6E-7;0;Weather
1.00270855;0.0006836;0.1957;103.5421;128.3434;104.2598;0;-9.6E-7;0;Weather
1.00271025;0.0006785;0.1967;103.8075;128.7518;346.1479;0;-9.8E-7;0;Weather
1.00270749;0.0006791;0.1975;103.7432;127.906;82.0944;0;-9.9E-7;0;Weather
1.00270705;0.0006784;0.1981;103.7296;127.9126;181.1845;0;-1.0E-6;0;Weather
1.00271276;0.0006854;0.1997;103.6932;129.1522;95.8524;0;-1.02E-6;0;Weather
1.00271268;0.0006852;0.1998;103.693;129.1389;111.3263;0;-1.03E-6;0;Weather
1.00271261;0.000685;0.1998;103.6931;129.126;111.3389;0;-1.02E-6;0;Weather
1.00271092;0.0006824;0.2022;103.7222;128.9735;111.8907;0;-1.05E-6;0;Weather
1.00271079;0.0006823;0.2028;103.7185;128.9441;215.5173;0;-1.05E-6;0;Weather
1.00270957;0.0006825;0.2042;103.7275;128.811;100.4269;0;-1.06E-6;0;Weather
1.00270554;0.0006579;0.2067;103.6326;126.1001;0.4531;0;-1.07E-6;0;Weather
1.00270894;0.0006829;0.2065;103.716;128.8493;104.5066;0;-1.07E-6;0;Weather
1.00270882;0.0006829;0.2066;103.7155;128.8446;117.566;0;-1.06E-6;0;Weather
